NORAD_CAT_ID,OBJECT_NAME,OBJECT_TYPE,EPOCH,MEAN_MOTION,ECCENTRICITY,INCLINATION,RA_OF_ASC_NODE,ARG_OF_PERICENTER,MEAN_ANOMALY,BSTAR,MEAN_MOTION_DOT,MEAN_MOTION_DDOT,TLE_LINE0,TLE_LINE1,TLE_LINE2,SEMIMAJOR_AXIS,PERIOD,APOGEE,PERIGEE,DECAYED
55313.0,STARLINK-5313,PAYLOAD,2023-06-03 19:54:15,15.69922302,0.0003578,69.9981,48.5116,270.5396,89.5389,1.7039e-05,1.836e-05,0.0,0 STARLINK-5313,1 55313U 23010AW  23154.82934813  .00001836  00000-0  17039-4 0  9998,2 55313  69.9981  48.5116 0003578 270.5396  89.5389 15.69922302 22938,6737.256,91.724,361.532,356.711,0.0
55313.0,STARLINK-5313,PAYLOAD,2023-06-04 02:01:15,15.69935755,0.0003554,69.9981,47.7959,263.6466,96.4325,-4.8426e-06,-7.95e-06,0.0,0 STARLINK-5313,1 55313U 23010AW  23155.08421059 -.00000795  00000-0 -48426-5 0  9990,2 55313  69.9981  47.7959 0003554 263.6466  96.4325 15.69935755 21784,6737.218,91.723,361.477,356.688,0.0
55313.0,STARLINK-5313,PAYLOAD,2023-06-04 03:33:01,15.69927125,0.0003515,69.9981,47.6167,264.1799,95.8996,7.6163e-06,7.03e-06,0.0,0 STARLINK-5313,1 55313U 23010AW  23155.14793129  .00000703  00000-0  76163-5 0  9993,2 55313  69.9981  47.6167 0003515 264.1799  95.8996 15.69927125 21796,6737.242,91.724,361.476,356.739,0.0
55313.0,STARLINK-5313,PAYLOAD,2023-06-04 20:22:17,15.69929581,0.0003563,69.9982,45.6462,264.7532,95.3258,9.5663e-06,9.38e-06,0.0,0 STARLINK-5313,1 55313U 23010AW  23155.84881334  .00000938  00000-0  95663-5 0  9992,2 55313  69.9982  45.6462 0003563 264.7532  95.3258 15.69929581 23096,6737.235,91.724,361.501,356.7,0.0
55313.0,STARLINK-5313,PAYLOAD,2023-06-05 02:29:18,15.69927399,0.0003657,69.9981,44.9286,270.0851,89.9926,1.1091e-05,1.121e-05,0.0,0 STARLINK-5313,1 55313U 23010AW  23156.10368071  .00001121  00000-0  11091-4 0  9997,2 55313  69.9981  44.9286 0003657 270.0851  89.9926 15.69927399 23130,6737.242,91.724,361.571,356.643,0.0
55313.0,STARLINK-5313,PAYLOAD,2023-06-05 17:46:49,15.69920645,0.0003488,69.9981,43.1384,265.1474,94.9324,4.3055e-06,3.05e-06,0.0,0 STARLINK-5313,1 55313U 23010AW  23156.74085471  .00000305  00000-0  43055-5 0  9996,2 55313  69.9981  43.1384 0003488 265.1474  94.9324 15.69920645 22042,6737.261,91.724,361.476,356.776,0.0
55313.0,STARLINK-5313,PAYLOAD,2023-06-05 19:18:34,15.69922585,0.0003477,69.9982,42.9578,263.8037,96.2763,8.651e-06,8.27e-06,0.0,0 STARLINK-5313,1 55313U 23010AW  23156.80456972  .00000827  00000-0  86510-5 0  9993,2 55313  69.9982  42.9578 0003477 263.8037  96.2763 15.69922585 23243,6737.255,91.724,361.463,356.778,0.0
55313.0,STARLINK-5313,PAYLOAD,2023-06-06 02:57:20,15.69927005,0.0003406,69.9996,42.0633,270.4795,89.601,1.094e-05,1.103e-05,0.0,0 STARLINK-5313,1 55313U 23010AW  23157.12314968  .00001103  00000-0  10940-4 0  9998,2 55313  69.9996  42.0633 0003406 270.4795  89.6010 15.69927005 22105,6737.243,91.724,361.403,356.813,0.0
55313.0,STARLINK-5313,PAYLOAD,2023-06-06 18:14:51,15.69929946,0.0003248,70.0004,40.2738,261.7015,98.3813,7.467e-06,6.85e-06,0.0,0 STARLINK-5313,1 55313U 23010AW  23157.76031511  .00000685  00000-0  74670-5 0  9993,2 55313  70.0004  40.2738 0003248 261.7015  98.3813 15.69929946 23392,6737.234,91.724,361.288,356.911,0.0
55313.0,STARLINK-5313,PAYLOAD,2023-06-07 03:25:22,15.69915683,0.0003515,69.999,39.1955,268.9673,91.1119,-2.0121e-05,-2.631e-05,0.0,0 STARLINK-5313,1 55313U 23010AW  23158.14262165 -.00002631  00000-0 -20121-4 0  9993,2 55313  69.9990  39.1955 0003515 268.9673  91.1119 15.69915683 22265,6737.275,91.725,361.508,356.772,0.0
55313.0,STARLINK-5313,PAYLOAD,2023-06-07 18:42:53,15.69922766,0.0003875,69.9997,37.4039,269.8667,90.2084,8.411e-06,7.98e-06,0.0,0 STARLINK-5313,1 55313U 23010AW  23158.77978763  .00000798  00000-0  84110-5 0  9999,2 55313  69.9997  37.4039 0003875 269.8667  90.2084 15.69922766 23552,6737.255,91.724,361.731,356.509,0.0
55313.0,STARLINK-5313,PAYLOAD,2023-06-08 00:49:54,15.69923297,0.0003476,69.9987,36.6856,269.739,90.3408,6.6528e-05,7.794e-05,0.0,0 STARLINK-5313,1 55313U 23010AW  23159.03465560  .00007794  00000-0  66528-4 0  9990,2 55313  69.9987  36.6856 0003476 269.7390  90.3408 15.69923297 22402,6737.253,91.724,361.46,356.777,0.0
55313.0,STARLINK-5313,PAYLOAD,2023-06-09 01:17:55,15.69926265,0.0003382,69.9998,33.8206,273.0166,87.0643,1.5749e-05,1.681e-05,0.0,0 STARLINK-5313,1 55313U 23010AW  23160.05411862  .00001681  00000-0  15749-4 0  9998,2 55313  69.9998  33.8206 0003382 273.0166  87.0643 15.69926265 22566,6737.245,91.724,361.388,356.831,0.0
55313.0,STARLINK-5313,PAYLOAD,2023-06-09 08:56:41,15.6991728,0.000412,69.9988,32.9231,269.0372,91.0352,4.8896e-06,3.75e-06,0.0,0 STARLINK-5313,1 55313U 23010AW  23160.37270622  .00000375  00000-0  48896-5 0  9999,2 55313  69.9988  32.9231 0004120 269.0372  91.0352 15.69917280 22613,6737.271,91.725,361.911,356.36,0.0
55313.0,STARLINK-5313,PAYLOAD,2023-06-09 16:35:27,15.6991965,0.0003699,69.9992,32.0287,259.0256,101.0524,-9.1042e-07,-3.22e-06,0.0,0 STARLINK-5313,1 55313U 23010AW  23160.69129011 -.00000322  00000-0 -91042-6 0  9995,2 55313  69.9992  32.0287 0003699 259.0256 101.0524 15.69919650 23853,6737.264,91.724,361.621,356.637,0.0
55313.0,STARLINK-5313,PAYLOAD,2023-06-10 01:45:57,15.69932102,0.0003417,69.9995,30.9538,258.8593,101.2218,2.4728e-05,2.763e-05,0.0,0 STARLINK-5313,1 55313U 23010AW  23161.07358495  .00002763  00000-0  24728-4 0  9992,2 55313  69.9995  30.9538 0003417 258.8593 101.2218 15.69932102 22725,6737.228,91.724,361.395,356.791,0.0
55313.0,STARLINK-5313,PAYLOAD,2023-06-10 13:59:58,15.69928605,0.0003849,69.9993,29.523,257.7076,102.3688,3.3444e-06,1.89e-06,0.0,0 STARLINK-5313,1 55313U 23010AW  23161.58331986  .00000189  00000-0  33444-5 0  9990,2 55313  69.9993  29.5230 0003849 257.7076 102.3688 15.69928605 23995,6737.238,91.724,361.696,356.51,0.0
55313.0,STARLINK-5313,PAYLOAD,2023-06-10 21:38:44,15.69927662,0.000367,69.9989,28.6272,263.136,96.9418,3.3157e-06,1.86e-06,0.0,0 STARLINK-5313,1 55313U 23010AW  23161.90190454  .00000186  00000-0  33157-5 0  9997,2 55313  69.9989  28.6272 0003670 263.1360  96.9418 15.69927662 24043,6737.241,91.724,361.579,356.633,0.0
55313.0,STARLINK-5313,PAYLOAD,2023-06-11 08:21:00,15.69922346,0.0004171,69.9983,27.372,265.5081,94.5638,2.031e-05,2.23e-05,0.0,0 STARLINK-5313,1 55313U 23010AW  23162.34792324  .00002230  00000-0  20310-4 0  9998,2 55313  69.9983  27.3720 0004171 265.5081  94.5638 15.69922346 22921,6737.256,91.724,361.931,356.311,0.0
55313.0,STARLINK-5313,PAYLOAD,2023-06-11 14:28:01,15.69924049,0.0003937,69.9998,26.6552,265.6178,94.4568,1.23e-05,1.266e-05,0.0,0 STARLINK-5313,1 55313U 23010AW  23162.60279024  .00001266  00000-0  12300-4 0  9992,2 55313  69.9998  26.6552 0003937 265.6178  94.4568 15.69924049 24159,6737.251,91.724,361.769,356.464,0.0
55313.0,STARLINK-5313,PAYLOAD,2023-06-11 20:35:01,15.69937854,0.0003804,69.9988,25.94,265.0773,94.9988,3.9479e-05,4.54e-05,0.0,0 STARLINK-5313,1 55313U 23010AW  23162.85765086  .00004540  00000-0  39479-4 0  9991,2 55313  69.9988  25.9400 0003804 265.0773  94.9988 15.69937854 24193,6737.212,91.723,361.64,356.514,0.0
55313.0,STARLINK-5313,PAYLOAD,2023-06-12 01:10:16,15.69929476,0.000403,70.0,25.4035,270.2328,89.8406,7.1011e-06,6.41e-06,0.0,0 STARLINK-5313,1 55313U 23010AW  23163.04880451  .00000641  00000-0  71011-5 0  9994,2 55313  70.0000  25.4035 0004030 270.2328  89.8406 15.69929476 24229,6737.236,91.724,361.816,356.386,0.0
55313.0,STARLINK-5313,PAYLOAD,2023-06-12 21:03:03,15.69923161,0.0003696,69.999,23.0726,264.6881,95.3893,2.1641e-05,2.39e-05,0.0,0 STARLINK-5313,1 55313U 23010AW  23163.87712630  .00002390  00000-0  21641-4 0  9994,2 55313  69.9990  23.0726 0003696 264.6881  95.3893 15.69923161 23162,6737.254,91.724,361.609,356.629,0.0
55313.0,STARLINK-5313,PAYLOAD,2023-06-12 22:34:48,15.69931168,0.0003733,69.9997,22.8942,267.6604,92.4165,3.6234e-05,4.148e-05,0.0,0 STARLINK-5313,1 55313U 23010AW  23163.94084009  .00004148  00000-0  36234-4 0  9991,2 55313  69.9997  22.8942 0003733 267.6604  92.4165 15.69931168 23171,6737.231,91.724,361.611,356.581,0.0
55313.0,STARLINK-5313,PAYLOAD,2023-06-13 13:52:19,15.69925466,0.0003683,69.9992,21.1026,264.6912,95.3863,9.9324e-06,9.82e-06,0.0,0 STARLINK-5313,1 55313U 23010AW  23164.57800916  .00000982  00000-0  99324-5 0  9996,2 55313  69.9992  21.1026 0003683 264.6912  95.3863 15.69925466 24468,6737.247,91.724,361.594,356.631,0.0
55313.0,STARLINK-5313,PAYLOAD,2023-06-13 18:27:35,15.6992784,0.0003654,69.999,20.5648,264.928,95.1499,1.3235e-05,1.379e-05,0.0,0 STARLINK-5313,1 55313U 23010AW  23164.76915794  .00001379  00000-0  13235-4 0  9995,2 55313  69.9990  20.5648 0003654 264.9280  95.1499 15.69927840 23301,6737.24,91.724,361.567,356.644,0.0
55313.0,STARLINK-5313,PAYLOAD,2023-06-14 08:13:21,15.69917764,0.0003459,69.9981,18.9517,262.7377,97.3426,3.6729e-05,4.205e-05,0.0,0 STARLINK-5313,1 55313U 23010AW  23165.34261423  .00004205  00000-0  36729-4 0  9997,2 55313  69.9981  18.9517 0003459 262.7377  97.3426 15.69917764 23390,6737.269,91.725,361.465,356.804,0.0
55313.0,STARLINK-5313,PAYLOAD,2023-06-14 20:27:22,15.69928672,0.0003787,69.9972,17.5188,266.6357,93.4406,8.4545e-06,8.04e-06,0.0,0 STARLINK-5313,1 55313U 23010AW  23165.85234294  .00000804  00000-0  84545-5 0  9990,2 55313  69.9972  17.5188 0003787 266.6357  93.4406 15.69928672 24660,6737.238,91.724,361.654,356.552,0.0
55313.0,STARLINK-5313,PAYLOAD,2023-06-15 08:41:23,15.69927947,0.000379,69.9994,16.0855,267.4662,92.6099,1.7545e-05,1.898e-05,0.0,0 STARLINK-5313,1 55313U 23010AW  23166.36207547  .00001898  00000-0  17545-4 0  9997,2 55313  69.9994  16.0855 0003790 267.4662  92.6099 15.69927947 23551,6737.24,91.724,361.659,356.552,0.0
55313.0,STARLINK-5313,PAYLOAD,2023-06-15 13:16:39,15.69921096,0.0003939,69.9992,15.5484,269.2811,90.7933,-7.7955e-06,-1.15e-05,0.0,0 STARLINK-5313,1 55313U 23010AW  23166.55322926 -.00001150  00000-0 -77955-5 0  9992,2 55313  69.9992  15.5484 0003939 269.2811  90.7933 15.69921096 24772,6737.26,91.724,361.779,356.471,0.0
